[{"OBJECT_NAME":"OBJECT BE","OBJECT_ID":"2024-199BE","EPOCH":"2026-03-09T22:35:11.240448","MEAN_MOTION":15.34583634,"ECCENTRICITY":0.00126202,"INCLINATION":97.3163,"RA_OF_ASC_NODE":298.7137,"ARG_OF_PERICENTER":307.7021,"MEAN_ANOMALY":52.3078,"EPHEMERIS_TYPE":0,"CLASSIFICATION_TYPE":"U","NORAD_CAT_ID":61787,"ELEMENT_SET_NO":999,"REV_AT_EPOCH":12186,"BSTAR":0.00035348262,"MEAN_MOTION_DOT":0.00011799,"MEAN_MOTION_DDOT":0},{"OBJECT_NAME":"STARLINK-36754","OBJECT_ID":"2026-026E","EPOCH":"2026-03-09T22:00:01.999584","MEAN_MOTION":15.47573266,"ECCENTRICITY":0.00014,"INCLINATION":97.2847,"RA_OF_ASC_NODE":123.4211,"ARG_OF_PERICENTER":67.9715,"MEAN_ANOMALY":323.3817,"EPHEMERIS_TYPE":0,"CLASSIFICATION_TYPE":"U","NORAD_CAT_ID":67725,"ELEMENT_SET_NO":999,"REV_AT_EPOCH":535,"BSTAR":-0.046489965,"MEAN_MOTION_DOT":-0.02120238,"MEAN_MOTION_DDOT":0}]
